CHUBUSAT-3              
1 41339U 16012C   21064.85897972  .00000531  00000-0  34267-4 0  9993
2 41339  31.0117 121.9490 0013176 195.4027 164.6219 15.00610660277029
HORYU-4                 
1 41340U 16012D   21064.47154061  .00000845  00000-0  56634-4 0  9998
2 41340  31.0052 109.2432 0013749 220.3778 139.5837 15.01768386277141
OUFTI-1                 
1 41458U 16025C   21064.82903234  .00002671  00000-0  13234-3 0  9992
2 41458  98.1263 195.8221 0160877  49.5146 311.9975 15.08098611266850
E-ST@R-II               
1 41459U 16025D   21064.82446141  .00003412  00000-0  16972-3 0  9998
2 41459  98.1250 194.9936 0162179  52.2991 309.2820 15.07570158266800
AAUSAT 4                
1 41460U 16025E   21064.79091992  .00003435  00000-0  16401-3 0  9998
2 41460  98.1242 198.3328 0149921  37.7971 323.3672 15.10381269267060
AIST-2D (RS-48)         
1 41465U 16026B   21064.87671590  .00003194  00000-0  93851-4 0  9998
2 41465  97.1212 312.4726 0012430  35.1987  28.7432 15.35759780271536
SAMSAT-218D             
1 41466U 16026C   21064.86035924  .00021008  00000-0  35160-3 0  9995
2 41466  97.1657 333.3811 0004188 342.9756  94.1325 15.51892491272759
NUSAT-1 (FRESCO)        
1 41557U 16033B   21064.81873385  .00002911  00000-0  10596-3 0  9998
2 41557  97.3929 159.3894 0011631 238.1621 236.3337 15.28974287265695
NUSAT-2 (BATATA)        
1 41558U 16033C   21064.83041697  .00003251  00000-0  11081-3 0  9992
2 41558  97.4022 162.7530 0010706 232.3082 242.4161 15.31060570265862
CARTOSAT-2C             
1 41599U 16040A   21064.85535301 -.00005657  00000-0 -26485-3 0  9995
2 41599  97.4133 126.2121 0015101  20.3864  78.4317 15.19243504260780
SATHYABAMASAT           
1 41600U 16040B   21064.40279993  .00003177  00000-0  12752-3 0  9996
2 41600  97.2866 124.3239 0012651 353.7258   6.3820 15.25619303261286
LAPAN-A3                
1 41603U 16040E   21064.84493447  .00000350  00000-0  19282-4 0  9995
2 41603  97.2713 115.6250 0013564  14.4765  96.3139 15.19972955260845
BIROS                   
1 41604U 16040F   21064.81901619  .00000930  00000-0  43144-4 0  9996
2 41604  97.2781 120.6403 0011837 354.0625   6.0469 15.22402429261131
SWAYAM                  
1 41607U 16040J   21064.73331663  .00002938  00000-0  11926-3 0  9998
2 41607  97.2821 123.5549 0012255 352.8682   7.2380 15.25308143261233
BEESAT-4                
1 41619U 16040W   21064.67408020  .00002713  00000-0  11140-3 0  9995
2 41619  97.2842 123.6294 0010116 347.3598  12.7385 15.25009707249197
3CAT-2                  
1 41732U 16051B   21064.77038539  .00002474  00000-0  91782-4 0  9993
2 41732  97.3779 345.9720 0013544 148.3136 269.0212 15.28476741253663
PRATHAM                 
1 41783U 16059A   21064.72085817  .00000075  00000-0  23548-4 0  9993
2 41783  97.9799 118.3044 0032911 211.0299 148.8960 14.63116759237085
ALSAT 1N                
1 41789U 16059G   21064.71676049  .00000117  00000-0  30873-4 0  9997
2 41789  97.9836 121.7413 0028024 196.0244 164.0071 14.64393931237266
LISHUI 1-01             
1 41845U 16066E   21064.82831397  .00013456  00000-0  17155-2 0  9995
2 41845  98.7279 162.8594 0276275  79.9787 283.2495 14.58274081228293
CARTOSAT-2D             
1 41948U 17008A   21064.54242558  .00000892  00000-0  45574-4 0  9998
2 41948  97.4557 126.2994 0008027 151.9965 208.1728 15.19227498224601
NAYIF-1 (EO-88)         
1 42017U 17008BX  21064.62688856  .00003056  00000-0  11583-3 0  9997
2 42017  97.3275 134.0663 0007706 112.7112 247.4942 15.27612185225400
ZHUHAI-1 02 (CAS-4B)    
1 42759U 17034B   21064.84840514  .00000492  00000-0  43057-4 0  9997
2 42759  43.0177  30.6167 0010065 242.6965 199.1095 15.10096595205484
ZHUHAI-1 01 (CAS-4A)    
1 42761U 17034D   21064.77809747  .00000526  00000-0  44999-4 0  9999
2 42761  43.0183  30.1324 0010595 243.1883 194.1361 15.10177897205472
UCLSAT                  
1 42765U 17036A   21064.56342181  .00002480  00000-0  10383-3 0  9996
2 42765  97.2650 117.3557 0011128 175.9579 184.1751 15.24411036206349
NIUSAT                  
1 42766U 17036B   21064.41095019  .00001928  00000-0  86182-4 0  9993
2 42766  97.2654 113.9370 0015297 175.9341 184.2022 15.22388810205383
CARTOSAT-2E             
1 42767U 17036C   21064.88189107  .00002042  00000-0  10000-3 0  9990
2 42767  97.4476 124.5184 0008703 202.0154 158.0344 15.19270988205228
LITUANICASAT-2          
1 42768U 17036D   21064.79873112  .00003811  00000-0  15266-3 0  9991
2 42768  97.2719 118.0839 0014632 166.3788 193.7848 15.25538756205665
AALTO-1                 
1 42775U 17036L   21064.71086505  .00001544  00000-0  69636-4 0  9995
2 42775  97.2626 114.5208 0013787 173.3122 186.8301 15.22397033205419
URSA MAIOR              
1 42776U 17036M   21064.40179324  .00001720  00000-0  76706-4 0  9996
2 42776  97.2640 114.6305 0013578 173.8259 186.3148 15.22635111205381
COMPASS 2               
1 42777U 17036N   21064.80170597  .00003062  00000-0  12495-3 0  9999
2 42777  97.2703 118.3528 0012322 166.6971 193.4594 15.25094246205618
MAX VALIER SAT          
1 42778U 17036P   21064.85364623  .00001725  00000-0  75559-4 0  9995
2 42778  97.2701 116.8012 0012224 173.7285 186.4108 15.23272343205512
PEGASUS                 
1 42784U 17036V   21064.18711237  .00002372  00000-0  10057-3 0  9995
2 42784  97.2657 116.5675 0011609 179.3018 180.8238 15.24020939205473
NUDTSAT                 
1 42787U 17036Y   21064.84328607  .00002954  00000-0  11846-3 0  9999
2 42787  97.2714 119.2827 0009772 171.5038 188.6389 15.25734243205534
SUCHAI                  
1 42788U 17036Z   21064.69683582  .00002675  00000-0  11073-3 0  9991
2 42788  97.2665 117.9206 0011274 174.5576 185.5787 15.24729005205678
SKCUBE                  
1 42789U 17036AA  21064.38107246  .00002601  00000-0  10847-3 0  9993
2 42789  97.2660 117.3740 0011113 176.1738 183.9587 15.24501147205531
VZLUSAT-1               
1 42790U 17036AB  21064.11443005  .00003450  00000-0  13792-3 0  9997
2 42790  97.2690 118.5636 0010646 172.8040 187.3354 15.25717348205579
ROBUSTA-1B              
1 42792U 17036AD  21064.10313970  .00002692  00000-0  11146-3 0  9993
2 42792  97.2663 117.4440 0010676 176.8948 183.2358 15.24722899205526
D-SAT                   
1 42794U 17036AF  21064.50752770  .00000251  00000-0  27005-4 0  9995
2 42794  97.4711  89.8757 0124961 212.6749 146.6697 14.91470121201568
NORSAT 2                
1 42828U 17042D   21064.67019797  .00000688  00000-0  73398-4 0  9993
2 42828  97.4932 300.8515 0015412 128.0249 232.2364 14.91748478198240
TECHNOSAT               
1 42829U 17042E   21064.58494033  .00000342  00000-0  39577-4 0  9992
2 42829  97.4853 299.5415 0015315 129.9342 230.3226 14.91229044198207
2017-042F               
1 42830U 17042F   21064.64425303  .00000926  00000-0  94804-4 0  9997
2 42830  97.4962 301.8368 0015277 122.9088 237.3604 14.92671791198311
FLYING LAPTOP           
1 42831U 17042G   21064.55939464  .00000437  00000-0  49066-4 0  9993
2 42831  97.4866 299.7127 0015248 130.3003 229.9526 14.91251176198209
CORVUS BC2              
1 42846U 17042X   21064.63351465  .00000091  00000-0  14103-4 0  9997
2 42846  97.4890 301.8683 0010896 120.8353 239.3940 14.92239679198356
CORVUS BC1              
1 42847U 17042Y   21064.61140526  .00000399  00000-0  44149-4 0  9994
2 42847  97.4892 302.0656 0010525 120.0383 240.1882 14.92341935198350
SIMPL                   
1 42983U 98067NF  21064.62632691  .00008929  00000-0  94836-4 0  9996
2 42983  51.6375  66.2035 0003133 333.6829  26.4006 15.64918741191130
CZ-4C R/B               
1 43012U 17072C   21064.73245899  .00000083  00000-0  29120-4 0  9996
2 43012  98.7335  74.5549 0126606 310.0105  49.0033 14.56148492175648
RADFXSAT (FOX-1B)       
1 43017U 17073E   21064.71839572  .00001068  00000-0  88500-4 0  9998
2 43017  97.7145 332.7903 0254140 278.8593  78.3925 14.79365374177788
EAGLESAT 1              
1 43018U 17073F   21064.68762702  .00001832  00000-0  14538-3 0  9993
2 43018  97.7142 333.4873 0251101 276.1314  81.1346 14.80306915177693
ECAMSAT                 
1 43019U 98067NG  21064.80014960  .00025668  00000-0  18157-3 0  9990
2 43019  51.6415  38.9451 0002526 343.8165  16.2753 15.73819335273838
INS-1C                  
1 43116U 18004F   21064.71004304  .00002339  00000-0  97363-4 0  9999
2 43116  97.4230 140.1520 0008663 197.2392 162.8552 15.24728306174831
FLOCK 3P'-3             
1 43119U 18004J   21064.68237299  .00001540  00000-0  66548-4 0  9993
2 43119  97.4223 139.1672 0009319 206.3296 153.7468 15.23970658174772
FLOCK 3P'-2             
1 43120U 18004K   21064.70294927  .00001359  00000-0  59561-4 0  9994
2 43120  97.4229 139.0242 0009321 206.7370 153.3388 15.23689427174769
FLOCK 3P'-1             
1 43121U 18004L   21064.73094332  .00004841  00000-0  18973-3 0  9996
2 43121  97.4220 140.4746 0008695 201.2579 158.8299 15.26216280174790
FLOCK 3P'-4             
1 43122U 18004M   21064.43759892  .00001439  00000-0  62864-4 0  9992
2 43122  97.4239 138.8511 0009045 210.0407 150.0313 15.23713195174728
MICROMAS-2A             
1 43131U 18004W   21064.71854063  .00003751  00000-0  14579-3 0  9997
2 43131  97.4197 141.3150 0008141 199.2823 160.8109 15.26649828174934
PICSAT                  
1 43132U 18004X   21064.69170170  .00002707  00000-0  10998-3 0  9996
2 43132  97.4180 140.1579 0008555 204.4772 155.6061 15.25401640174868
CNUSAIL-1               
1 43133U 18004Y   21064.19525515  .00001973  00000-0  83102-4 0  9991
2 43133  97.4164 138.8602 0008502 209.0049 151.0717 15.24509922174748
2018-004Z               
1 43134U 18004Z   21064.65094079  .00002372  00000-0  97741-4 0  9997
2 43134  97.4174 139.8737 0008369 205.8011 154.2810 15.25050350174830
FOX-1D (AO-92)          
1 43137U 18004AC  21064.46842300  .00002226  00000-0  92377-4 0  9995
2 43137  97.4161 139.5439 0008097 207.8407 152.2398 15.24877734174813
